NORAD_CAT_ID,OBJECT_NAME,OBJECT_TYPE,EPOCH,MEAN_MOTION,ECCENTRICITY,INCLINATION,RA_OF_ASC_NODE,ARG_OF_PERICENTER,MEAN_ANOMALY,BSTAR,MEAN_MOTION_DOT,MEAN_MOTION_DDOT,TLE_LINE0,TLE_LINE1,TLE_LINE2,SEMIMAJOR_AXIS,PERIOD,APOGEE,PERIGEE,DECAYED
54012.0,STARLINK-5126,PAYLOAD,2024-04-10 04:21:10,15.08844511,0.0001332,53.2172,99.7176,92.6333,267.4811,7.0665e-05,8.37e-06,0.0,0 STARLINK-5126,1 54012U 22125BA  24101.18137536  .00000837  00000-0  70665-4 0  9992,2 54012  53.2172  99.7176 0001332  92.6333 267.4811 15.08844511 84208,6917.867,95.437,540.653,538.81,0.0
54012.0,STARLINK-5126,PAYLOAD,2024-04-10 09:07:19,15.08847942,0.0001379,53.2172,98.8254,89.1707,270.9443,0.00010141,1.327e-05,0.0,0 STARLINK-5126,1 54012U 22125BA  24101.38009203  .00001327  00000-0  10141-3 0  9990,2 54012  53.2172  98.8254 0001379  89.1707 270.9443 15.08847942 84180,6917.856,95.437,540.675,538.767,0.0
54012.0,STARLINK-5126,PAYLOAD,2024-04-10 23:25:48,15.0883691,0.0001359,53.216,96.1476,87.629,272.4858,4.051e-05,3.57e-06,0.0,0 STARLINK-5126,1 54012U 22125BA  24101.97626041  .00000357  00000-0  40510-4 0  9996,2 54012  53.2160  96.1476 0001359  87.6290 272.4858 15.08836910 84272,6917.89,95.438,540.695,538.815,0.0
54012.0,STARLINK-5126,PAYLOAD,2024-04-11 05:47:21,15.08835064,0.0001359,53.2162,94.9577,88.7924,271.3224,3.7524e-05,3.09e-06,0.0,0 STARLINK-5126,1 54012U 22125BA  24102.24122226  .00000309  00000-0  37524-4 0  9991,2 54012  53.2162  94.9577 0001359  88.7924 271.3224 15.08835064 84362,6917.895,95.438,540.701,538.82,0.0
54012.0,STARLINK-5126,PAYLOAD,2024-04-11 08:58:07,15.08839578,0.0001413,53.2171,94.3635,87.1132,273.0022,2.43e-05,9.9e-07,0.0,0 STARLINK-5126,1 54012U 22125BA  24102.37370015  .00000099  00000-0  24300-4 0  9990,2 54012  53.2171  94.3635 0001413  87.1132 273.0022 15.08839578 84332,6917.882,95.438,540.724,538.769,0.0
54012.0,STARLINK-5126,PAYLOAD,2024-04-11 16:55:03,15.08842736,0.0001421,53.2174,92.877,86.5257,273.5898,3.5018e-05,2.69e-06,0.0,0 STARLINK-5126,1 54012U 22125BA  24102.70489774  .00000269  00000-0  35018-4 0  9997,2 54012  53.2174  92.8770 0001421  86.5257 273.5898 15.08842736 84435,6917.872,95.437,540.72,538.754,0.0
54012.0,STARLINK-5126,PAYLOAD,2024-04-12 08:48:54,15.08847085,0.0001449,53.2171,89.9026,88.0937,272.0221,6.6536e-05,7.71e-06,0.0,0 STARLINK-5126,1 54012U 22125BA  24103.36729221  .00000771  00000-0  66536-4 0  9991,2 54012  53.2171  89.9026 0001449  88.0937 272.0221 15.08847085 84486,6917.859,95.437,540.726,538.721,0.0
54012.0,STARLINK-5126,PAYLOAD,2024-04-13 03:53:32,15.08839459,0.0001441,53.2171,86.3335,89.8209,270.2948,7.2378e-05,8.64e-06,0.0,0 STARLINK-5126,1 54012U 22125BA  24104.16217675  .00000864  00000-0  72378-4 0  9999,2 54012  53.2171  86.3335 0001441  89.8209 270.2948 15.08839459 84654,6917.882,95.438,540.744,538.75,0.0
54012.0,STARLINK-5126,PAYLOAD,2024-04-13 08:39:41,15.08841552,0.0001465,53.2174,85.4414,91.1947,268.9213,6.4693e-05,7.42e-06,0.0,0 STARLINK-5126,1 54012U 22125BA  24104.36089556  .00000742  00000-0  64693-4 0  9992,2 54012  53.2174  85.4414 0001465  91.1947 268.9213 15.08841552 84630,6917.876,95.437,540.754,538.727,0.0
54012.0,STARLINK-5126,PAYLOAD,2024-04-14 03:44:19,15.08836691,0.0001585,53.2182,81.8718,99.1058,261.0114,-3.9325e-05,-9.14e-06,0.0,0 STARLINK-5126,1 54012U 22125BA  24105.15578304 -.00000914  00000-0 -39325-4 0  9991,2 54012  53.2182  81.8718 0001585  99.1058 261.0114 15.08836691 84801,6917.891,95.438,540.852,538.659,0.0
54012.0,STARLINK-5126,PAYLOAD,2024-04-14 22:48:57,15.08811215,0.0001831,53.219,78.3019,106.9228,253.1965,0.00040964,6.232e-05,0.0,0 STARLINK-5126,1 54012U 22125BA  24105.95066208  .00006232  00000-0  40964-3 0  9991,2 54012  53.2190  78.3019 0001831 106.9228 253.1965 15.08811215 84873,6917.968,95.439,541.1,538.567,0.0
54012.0,STARLINK-5126,PAYLOAD,2024-04-15 05:10:30,15.08798618,0.0001787,53.2185,77.1126,104.476,255.6431,0.00075199,0.00011687,0.0,0 STARLINK-5126,1 54012U 22125BA  24106.21562532  .00011687  00000-0  75199-3 0  9990,2 54012  53.2185  77.1126 0001787 104.4760 255.6431 15.08798618 84963,6918.007,95.44,541.108,538.636,0.0
54012.0,STARLINK-5126,PAYLOAD,2024-04-15 08:21:15,15.0884457,0.0001587,53.2188,76.5184,97.4402,262.6771,0.00012409,1.688e-05,0.0,0 STARLINK-5126,1 54012U 22125BA  24106.34809535  .00001688  00000-0  12409-3 0  9996,2 54012  53.2188  76.5184 0001587  97.4402 262.6771 15.08844570 84981,6917.866,95.437,540.829,538.634,0.0
54012.0,STARLINK-5126,PAYLOAD,2024-04-16 05:01:17,15.08838565,0.0001655,53.2197,72.6598,97.9969,262.1211,8.2698e-05,1.028e-05,0.0,0 STARLINK-5126,1 54012U 22125BA  24107.20922462  .00001028  00000-0  82698-4 0  9993,2 54012  53.2197  72.6598 0001655  97.9969 262.1211 15.08838565 85113,6917.885,95.438,540.895,538.605,0.0
54012.0,STARLINK-5126,PAYLOAD,2024-04-16 14:33:35,15.08844307,0.0001614,53.2194,70.8764,103.0619,257.0553,0.00012236,1.66e-05,0.0,0 STARLINK-5126,1 54012U 22125BA  24107.60666056  .00001660  00000-0  12236-3 0  9993,2 54012  53.2194  70.8764 0001614 103.0619 257.0553 15.08844307 85125,6917.867,95.437,540.849,538.616,0.0
54012.0,STARLINK-5126,PAYLOAD,2024-04-17 04:52:02,15.08864634,0.0001308,53.2172,68.1958,89.7466,270.3676,0.00028272,4.217e-05,0.0,0 STARLINK-5126,1 54012U 22125BA  24108.20280479  .00004217  00000-0  28272-3 0  9999,2 54012  53.2172  68.1958 0001308  89.7466 270.3676 15.08864634 85260,6917.805,95.436,540.575,538.765,0.0
54012.0,STARLINK-5126,PAYLOAD,2024-04-18 01:32:04,15.08829095,0.0003225,53.2167,64.3294,147.9339,212.185,-0.00017681,-3.101e-05,0.0,0 STARLINK-5126,1 54012U 22125BA  24109.06393942 -.00003101  00000-0 -17681-3 0  9999,2 54012  53.2167  64.3294 0003225 147.9339 212.1850 15.08829095 85395,6917.914,95.438,542.01,537.548,0.0
54012.0,STARLINK-5126,PAYLOAD,2024-04-18 04:42:51,15.08824725,0.0001854,53.2172,63.7374,68.8339,291.2851,-0.00018339,-3.204e-05,0.0,0 STARLINK-5126,1 54012U 22125BA  24109.19643009 -.00003204  00000-0 -18339-3 0  9990,2 54012  53.2172  63.7374 0001854  68.8339 291.2851 15.08824725 85417,6917.927,95.439,541.075,538.509,0.0
54012.0,STARLINK-5126,PAYLOAD,2024-04-19 02:58:14,15.08855842,0.0001729,53.2179,59.57,123.7875,236.3282,0.00045219,6.919e-05,0.0,0 STARLINK-5126,1 54012U 22125BA  24110.12377801  .00006919  00000-0  45219-3 0  9990,2 54012  53.2179  59.5700 0001729 123.7875 236.3282 15.08855842 85554,6917.832,95.437,540.893,538.501,0.0
54012.0,STARLINK-5126,PAYLOAD,2024-04-20 02:49:01,15.08871253,0.0001624,53.2181,55.1146,72.9722,287.1448,0.00089109,0.00013934,0.0,0 STARLINK-5126,1 54012U 22125BA  24111.11738318  .00013934  00000-0  89109-3 0  9995,2 54012  53.2181  55.1146 0001624  72.9722 287.1448 15.08871253 85702,6917.785,95.436,540.773,538.526,0.0
54012.0,STARLINK-5126,PAYLOAD,2024-04-20 05:59:47,15.08874684,0.0002001,53.2195,54.5122,92.6732,267.4489,0.0008353,0.00013043,0.0,0 STARLINK-5126,1 54012U 22125BA  24111.24985917  .00013043  00000-0  83530-3 0  9991,2 54012  53.2195  54.5122 0002001  92.6732 267.4489 15.08874684 85677,6917.774,95.435,541.024,538.255,0.0
54012.0,STARLINK-5126,PAYLOAD,2024-04-21 01:04:26,15.08834133,0.0001585,53.2186,50.9464,108.6331,251.4834,-0.00026117,-4.441e-05,0.0,0 STARLINK-5126,1 54012U 22125BA  24112.04474635 -.00004441  00000-0 -26117-3 0  9992,2 54012  53.2186  50.9464 0001585 108.6331 251.4834 15.08834133 85846,6917.898,95.438,540.86,538.667,0.0
54012.0,STARLINK-5126,PAYLOAD,2024-04-21 05:50:35,15.08833462,0.0001527,53.2185,50.0539,113.6335,246.4818,-0.00012152,-2.221e-05,0.0,0 STARLINK-5126,1 54012U 22125BA  24112.24346739 -.00002221  00000-0 -12152-3 0  9995,2 54012  53.2185  50.0539 0001527 113.6335 246.4818 15.08833462 85823,6917.9,95.438,540.822,538.709,0.0
54012.0,STARLINK-5126,PAYLOAD,2024-04-22 02:30:36,15.08846305,0.000136,53.2187,46.1888,115.7669,244.3464,0.0010119,0.00015856,0.0,0 STARLINK-5126,1 54012U 22125BA  24113.10459145  .00015856  00000-0  10119-2 0  9993,2 54012  53.2187  46.1888 0001360 115.7669 244.3464 15.08846305 86001,6917.861,95.437,540.667,538.785,0.0
54012.0,STARLINK-5126,PAYLOAD,2024-04-22 05:41:22,15.08847628,0.0001486,53.219,45.5941,118.5103,241.6039,0.0010739,0.00016848,0.0,0 STARLINK-5126,1 54012U 22125BA  24113.23707144  .00016848  00000-0  10739-2 0  9992,2 54012  53.2190  45.5941 0001486 118.5103 241.6039 15.08847628 85973,6917.857,95.437,540.75,538.694,0.0
54012.0,STARLINK-5126,PAYLOAD,2024-04-22 19:59:51,15.08838314,0.0002298,53.2191,42.9204,117.9365,242.186,0.00024344,3.588e-05,0.0,0 STARLINK-5126,1 54012U 22125BA  24113.83323644  .00003588  00000-0  24344-3 0  9992,2 54012  53.2191  42.9204 0002298 117.9365 242.1860 15.08838314 86119,6917.886,95.438,541.34,538.161,0.0
54012.0,STARLINK-5126,PAYLOAD,2024-04-23 02:21:24,15.08845438,0.0001172,53.2195,41.7316,103.2049,256.9074,0.00038689,5.876e-05,0.0,0 STARLINK-5126,1 54012U 22125BA  24114.09819542  .00005876  00000-0  38689-3 0  9997,2 54012  53.2195  41.7316 0001172 103.2049 256.9074 15.08845438 86105,6917.864,95.437,540.54,538.918,0.0
54012.0,STARLINK-5126,PAYLOAD,2024-04-23 19:50:38,15.08837842,0.0001419,53.2198,38.4602,107.3195,252.7953,-1.8689e-05,-5.85e-06,0.0,0 STARLINK-5126,1 54012U 22125BA  24114.82683843 -.00000585  00000-0 -18689-4 0  9994,2 54012  53.2198  38.4602 0001419 107.3195 252.7953 15.08837842 86267,6917.887,95.438,540.734,538.77,0.0
54012.0,STARLINK-5126,PAYLOAD,2024-04-24 02:12:10,15.08854771,0.0001349,53.2195,37.27,88.6913,271.4234,0.00048624,7.462e-05,0.0,0 STARLINK-5126,1 54012U 22125BA  24115.09179331  .00007462  00000-0  48624-3 0  9996,2 54012  53.2195  37.2700 0001349  88.6913 271.4234 15.08854771 86306,6917.835,95.437,540.633,538.767,0.0
54012.0,STARLINK-5126,PAYLOAD,2024-04-24 05:22:57,15.08861772,0.0001379,53.2193,36.6735,89.8126,270.3024,0.00095361,0.0001493,0.0,0 STARLINK-5126,1 54012U 22125BA  24115.22427305  .00014930  00000-0  95361-3 0  9996,2 54012  53.2193  36.6735 0001379  89.8126 270.3024 15.08861772 86277,6917.814,95.436,540.633,538.725,0.0
